[
    {
        "Altitude(m)": 554142.8761460735,
        "Argument of Periapsis(deg)": 0.019868973332140504,
        "Eccentricity": 0.0,
        "Inclination(deg)": 53.0,
        "Latitude(deg)": 23.373456369490544,
        "Longitude(deg)": 38.721074107430674,
        "Mean Anomaly(deg)": -209.72512139726726,
        "RAAN(deg)": 339.97043010558406,
        "Satellite Name": "Starlink Shell 1 1503",
        "Satellite Number": 1503,
        "Semi-Major Axis(m)": 6931778.249405717,
        "Time(s)": 570
    },
    {
        "Altitude(m)": 554090.95940221,
        "Argument of Periapsis(deg)": 0.02021755181165174,
        "Eccentricity": 0.0,
        "Inclination(deg)": 53.0,
        "Latitude(deg)": 22.896588219292262,
        "Longitude(deg)": 39.12488768765044,
        "Mean Anomaly(deg)": -209.09829019371057,
        "RAAN(deg)": 339.9699113355066,
        "Satellite Name": "Starlink Shell 1 1503",
        "Satellite Number": 1503,
        "Semi-Major Axis(m)": 6931778.249405717,
        "Time(s)": 580
    },
    {
        "Altitude(m)": 554040.8661155603,
        "Argument of Periapsis(deg)": 0.020566130291162974,
        "Eccentricity": 0.0,
        "Inclination(deg)": 53.0,
        "Latitude(deg)": 22.41845522018501,
        "Longitude(deg)": 39.52559838133443,
        "Mean Anomaly(deg)": -208.47145899015376,
        "RAAN(deg)": 339.96939256542913,
        "Satellite Name": "Starlink Shell 1 1503",
        "Satellite Number": 1503,
        "Semi-Major Axis(m)": 6931778.249405717,
        "Time(s)": 590
    },
    {
        "Altitude(m)": 553992.6412380304,
        "Argument of Periapsis(deg)": 0.020914708770674213,
        "Eccentricity": 0.0,
        "Inclination(deg)": 53.0,
        "Latitude(deg)": 21.939094778736195,
        "Longitude(deg)": 39.92329106167061,
        "Mean Anomaly(deg)": -207.84462778659707,
        "RAAN(deg)": 339.96887379535167,
        "Satellite Name": "Starlink Shell 1 1503",
        "Satellite Number": 1503,
        "Semi-Major Axis(m)": 6931778.249405717,
        "Time(s)": 600
    },
    {
        "Altitude(m)": 553946.3289480677,
        "Argument of Periapsis(deg)": 0.021263287250185448,
        "Eccentricity": 0.0,
        "Inclination(deg)": 53.0,
        "Latitude(deg)": 21.458543587578312,
        "Longitude(deg)": 40.318049430024736,
        "Mean Anomaly(deg)": -207.21779658304038,
        "RAAN(deg)": 339.96835502527415,
        "Satellite Name": "Starlink Shell 1 1503",
        "Satellite Number": 1503,
        "Semi-Major Axis(m)": 6931778.249405717,
        "Time(s)": 610
    },
    {
        "Altitude(m)": 553901.9726264339,
        "Argument of Periapsis(deg)": 0.021611865729696686,
        "Eccentricity": 0.0,
        "Inclination(deg)": 53.0,
        "Latitude(deg)": 20.976837648947523,
        "Longitude(deg)": 40.70995654194406,
        "Mean Anomaly(deg)": -206.59096537948363,
        "RAAN(deg)": 339.96783625519674,
        "Satellite Name": "Starlink Shell 1 1503",
        "Satellite Number": 1503,
        "Semi-Major Axis(m)": 6931778.249405717,
        "Time(s)": 620
    },
    {
        "Altitude(m)": 553859.6148322994,
        "Argument of Periapsis(deg)": 0.02196044420920792,
        "Eccentricity": 0.0,
        "Inclination(deg)": 53.0,
        "Latitude(deg)": 20.494012297707098,
        "Longitude(deg)": 41.09909365300234,
        "Mean Anomaly(deg)": -205.9641341759269,
        "RAAN(deg)": 339.9673174851192,
        "Satellite Name": "Starlink Shell 1 1503",
        "Satellite Number": 1503,
        "Semi-Major Axis(m)": 6931778.249405717,
        "Time(s)": 630
    },
    {
        "Altitude(m)": 553819.2972797573,
        "Argument of Periapsis(deg)": 0.02230902268871916,
        "Eccentricity": 0.0,
        "Inclination(deg)": 53.0,
        "Latitude(deg)": 20.010102223870504,
        "Longitude(deg)": 41.48554158682023,
        "Mean Anomaly(deg)": -205.33730297237022,
        "RAAN(deg)": 339.96679871504176,
        "Satellite Name": "Starlink Shell 1 1503",
        "Satellite Number": 1503,
        "Semi-Major Axis(m)": 6931778.249405717,
        "Time(s)": 640
    },
    {
        "Altitude(m)": 553781.0608146812,
        "Argument of Periapsis(deg)": 0.022657601168230398,
        "Eccentricity": 0.0,
        "Inclination(deg)": 53.0,
        "Latitude(deg)": 19.525141494623625,
        "Longitude(deg)": 41.869379582262816,
        "Mean Anomaly(deg)": -204.7104717688135,
        "RAAN(deg)": 339.9662799449643,
        "Satellite Name": "Starlink Shell 1 1503",
        "Satellite Number": 1503,
        "Semi-Major Axis(m)": 6931778.249405717,
        "Time(s)": 650
    },
    {
        "Altitude(m)": 553744.9453920365,
        "Argument of Periapsis(deg)": 0.023006179647741636,
        "Eccentricity": 0.0,
        "Inclination(deg)": 53.0,
        "Latitude(deg)": 19.039163575862133,
        "Longitude(deg)": 42.25068582216442,
        "Mean Anomaly(deg)": -204.08364056525681,
        "RAAN(deg)": 339.96576117488684,
        "Satellite Name": "Starlink Shell 1 1503",
        "Satellite Number": 1503,
        "Semi-Major Axis(m)": 6931778.249405717,
        "Time(s)": 660
    },
    {
        "Altitude(m)": 553710.9900535574,
        "Argument of Periapsis(deg)": 0.023354758127252868,
        "Eccentricity": 0.0,
        "Inclination(deg)": 53.0,
        "Latitude(deg)": 18.55220135325036,
        "Longitude(deg)": 42.62953796253749,
        "Mean Anomaly(deg)": -203.4568093617,
        "RAAN(deg)": 339.9652424048094,
        "Satellite Name": "Starlink Shell 1 1503",
        "Satellite Number": 1503,
        "Semi-Major Axis(m)": 6931778.249405717,
        "Time(s)": 670
    },
    {
        "Altitude(m)": 553679.2329058847,
        "Argument of Periapsis(deg)": 0.023703336606764106,
        "Eccentricity": 0.0,
        "Inclination(deg)": 53.0,
        "Latitude(deg)": 18.064287152809833,
        "Longitude(deg)": 43.006012149326125,
        "Mean Anomaly(deg)": -202.8299781581434,
        "RAAN(deg)": 339.9647236347319,
        "Satellite Name": "Starlink Shell 1 1503",
        "Satellite Number": 1503,
        "Semi-Major Axis(m)": 6931778.249405717,
        "Time(s)": 680
    },
    {
        "Altitude(m)": 553649.7110991296,
        "Argument of Periapsis(deg)": 0.024051915086275345,
        "Eccentricity": 0.0,
        "Inclination(deg)": 53.0,
        "Latitude(deg)": 17.575452761051615,
        "Longitude(deg)": 43.38018354839297,
        "Mean Anomaly(deg)": -202.20314695458663,
        "RAAN(deg)": 339.9642048646544,
        "Satellite Name": "Starlink Shell 1 1503",
        "Satellite Number": 1503,
        "Semi-Major Axis(m)": 6931778.249405717,
        "Time(s)": 690
    },
    {
        "Altitude(m)": 553622.4608058902,
        "Argument of Periapsis(deg)": 0.024400493565786583,
        "Eccentricity": 0.0,
        "Inclination(deg)": 53.0,
        "Latitude(deg)": 17.085729444663208,
        "Longitude(deg)": 43.75212687580908,
        "Mean Anomaly(deg)": -201.57631575103,
        "RAAN(deg)": 339.96368609457693,
        "Satellite Name": "Starlink Shell 1 1503",
        "Satellite Number": 1503,
        "Semi-Major Axis(m)": 6931778.249405717,
        "Time(s)": 700
    },
    {
        "Altitude(m)": 553597.5172007326,
        "Argument of Periapsis(deg)": 0.024749072045297815,
        "Eccentricity": 0.0,
        "Inclination(deg)": 53.0,
        "Latitude(deg)": 16.59514796975582,
        "Longitude(deg)": 44.12191541552516,
        "Mean Anomaly(deg)": -200.94948454747322,
        "RAAN(deg)": 339.96316732449947,
        "Satellite Name": "Starlink Shell 1 1503",
        "Satellite Number": 1503,
        "Semi-Major Axis(m)": 6931778.249405717,
        "Time(s)": 710
    },
    {
        "Altitude(m)": 553574.9144401383,
        "Argument of Periapsis(deg)": 0.025097650524809053,
        "Eccentricity": 0.0,
        "Inclination(deg)": 53.0,
        "Latitude(deg)": 16.103738620691637,
        "Longitude(deg)": 44.489621550124944,
        "Mean Anomaly(deg)": -200.32265334391656,
        "RAAN(deg)": 339.962648554422,
        "Satellite Name": "Starlink Shell 1 1503",
        "Satellite Number": 1503,
        "Semi-Major Axis(m)": 6931778.249405717,
        "Time(s)": 720
    },
    {
        "Altitude(m)": 553554.6856429582,
        "Argument of Periapsis(deg)": 0.02544622900432029,
        "Eccentricity": 0.0,
        "Inclination(deg)": 53.0,
        "Latitude(deg)": 15.611531218497516,
        "Longitude(deg)": 44.85531729174824,
        "Mean Anomaly(deg)": -199.69582214035975,
        "RAAN(deg)": 339.9621297843445,
        "Satellite Name": "Starlink Shell 1 1503",
        "Satellite Number": 1503,
        "Semi-Major Axis(m)": 6931778.249405717,
        "Time(s)": 730
    },
    {
        "Altitude(m)": 553536.8628713269,
        "Argument of Periapsis(deg)": 0.02579480748383153,
        "Eccentricity": 0.0,
        "Inclination(deg)": 53.0,
        "Latitude(deg)": 15.118555138877676,
        "Longitude(deg)": 45.219073300269784,
        "Mean Anomaly(deg)": -199.06899093680306,
        "RAAN(deg)": 339.9616110142671,
        "Satellite Name": "Starlink Shell 1 1503",
        "Satellite Number": 1503,
        "Semi-Major Axis(m)": 6931778.249405717,
        "Time(s)": 740
    },
    {
        "Altitude(m)": 553521.4771121135,
        "Argument of Periapsis(deg)": 0.026143385963342765,
        "Eccentricity": 0.0,
        "Inclination(deg)": 53.0,
        "Latitude(deg)": 14.624839329839713,
        "Longitude(deg)": 45.58095941445168,
        "Mean Anomaly(deg)": -198.44215973324637,
        "RAAN(deg)": 339.96109224418956,
        "Satellite Name": "Starlink Shell 1 1503",
        "Satellite Number": 1503,
        "Semi-Major Axis(m)": 6931778.249405717,
        "Time(s)": 750
    }
]